{"type":"FeatureCollection","generatedAt":"2026-09-12T12:09:15.862Z","count":75,"features":[{"type":"Feature","geometry":{"type":"Point","coordinates":[-82.30303955,34.80646896]},"properties":{"id":"wigle/00:F4:8D:04:33:A3","kind":"alpr","brand":"Flock Safety","rawBrand":"WiGLE RF signature","name":"Possible Flock Safety camera","operator":null,"directions":[],"omni":true,"zone":null,"purpose":"Unconfirmed — WiFi signature matches a Flock Safety camera. Not verified by eye.","imageUrl":null,"fovHalfAngle":180,"unconfirmed":true,"evidence":"WiGLE: SSID \"Flock\", 00:F4:8D:04:33:A3, first seen 2026-09-05"}},{"type":"Feature","geometry":{"type":"Point","coordinates":[-82.37752533,34.83005905]},"properties":{"id":"wigle/08:3A:88:05:30:F8","kind":"alpr","brand":"Flock Safety","rawBrand":"WiGLE RF signature","name":"Possible Flock Safety camera","operator":null,"directions":[],"omni":true,"zone":null,"purpose":"Unconfirmed — WiFi signature matches a Flock Safety camera. Not verified by eye.","imageUrl":null,"fovHalfAngle":180,"unconfirmed":true,"evidence":"WiGLE: SSID \"Flock\", 08:3A:88:05:30:F8, first seen 2026-09-03"}},{"type":"Feature","geometry":{"type":"Point","coordinates":[-82.3584137,34.81639099]},"properties":{"id":"wigle/08:3A:88:05:73:EB","kind":"alpr","brand":"Flock Safety","rawBrand":"WiGLE RF signature","name":"Possible Flock Safety camera","operator":null,"directions":[],"omni":true,"zone":null,"purpose":"Unconfirmed — WiFi signature matches a Flock Safety camera. Not verified by eye.","imageUrl":null,"fovHalfAngle":180,"unconfirmed":true,"evidence":"WiGLE: SSID \"Flock\", 08:3A:88:05:73:EB, first seen 2026-07-20"}},{"type":"Feature","geometry":{"type":"Point","coordinates":[-82.18144989,33.51353455]},"properties":{"id":"wigle/08:3A:88:28:6F:F7","kind":"alpr","brand":"Flock Safety","rawBrand":"WiGLE RF signature","name":"Possible Flock Safety camera","operator":null,"directions":[],"omni":true,"zone":null,"purpose":"Unconfirmed — WiFi signature matches a Flock Safety camera. Not verified by eye.","imageUrl":null,"fovHalfAngle":180,"unconfirmed":true,"evidence":"WiGLE: SSID \"Flock\", 08:3A:88:28:6F:F7, first seen 2026-07-24"}},{"type":"Feature","geometry":{"type":"Point","coordinates":[-82.3476944,34.75363922]},"properties":{"id":"wigle/08:3A:88:28:EC:81","kind":"alpr","brand":"Flock Safety","rawBrand":"WiGLE RF signature","name":"Possible Flock Safety camera","operator":null,"directions":[],"omni":true,"zone":null,"purpose":"Unconfirmed — WiFi signature matches a Flock Safety camera. Not verified by eye.","imageUrl":null,"fovHalfAngle":180,"unconfirmed":true,"evidence":"WiGLE: SSID \"Flock\", 08:3A:88:28:EC:81, first seen 2026-09-04"}},{"type":"Feature","geometry":{"type":"Point","coordinates":[-82.25925446,34.76549149]},"properties":{"id":"wigle/08:3A:88:2A:19:94","kind":"alpr","brand":"Flock Safety","rawBrand":"WiGLE RF signature","name":"Possible Flock Safety camera","operator":null,"directions":[],"omni":true,"zone":null,"purpose":"Unconfirmed — WiFi signature matches a Flock Safety camera. Not verified by eye.","imageUrl":null,"fovHalfAngle":180,"unconfirmed":true,"evidence":"WiGLE: SSID \"Flock\", 08:3A:88:2A:19:94, first seen 2026-09-06"}},{"type":"Feature","geometry":{"type":"Point","coordinates":[-82.30211639,34.81587982]},"properties":{"id":"wigle/08:3A:88:30:BF:50","kind":"alpr","brand":"Flock Safety","rawBrand":"WiGLE RF signature","name":"Possible Flock Safety camera","operator":null,"directions":[],"omni":true,"zone":null,"purpose":"Unconfirmed — WiFi signature matches a Flock Safety camera. Not verified by eye.","imageUrl":null,"fovHalfAngle":180,"unconfirmed":true,"evidence":"WiGLE: SSID \"Flock\", 08:3A:88:30:BF:50, first seen 2026-07-19"}},{"type":"Feature","geometry":{"type":"Point","coordinates":[-82.38917542,34.80448151]},"properties":{"id":"wigle/08:3A:88:34:D4:EE","kind":"alpr","brand":"Flock Safety","rawBrand":"WiGLE RF signature","name":"Possible Flock Safety camera","operator":null,"directions":[],"omni":true,"zone":null,"purpose":"Unconfirmed — WiFi signature matches a Flock Safety camera. Not verified by eye.","imageUrl":null,"fovHalfAngle":180,"unconfirmed":true,"evidence":"WiGLE: SSID \"Flock\", 08:3A:88:34:D4:EE, first seen 2026-09-03"}},{"type":"Feature","geometry":{"type":"Point","coordinates":[-82.3348465,34.74429321]},"properties":{"id":"wigle/08:3A:88:35:48:C9","kind":"alpr","brand":"Flock Safety","rawBrand":"WiGLE RF signature","name":"Possible Flock Safety camera","operator":null,"directions":[],"omni":true,"zone":null,"purpose":"Unconfirmed — WiFi signature matches a Flock Safety camera. Not verified by eye.","imageUrl":null,"fovHalfAngle":180,"unconfirmed":true,"evidence":"WiGLE: SSID \"Flock\", 08:3A:88:35:48:C9, first seen 2026-09-01"}},{"type":"Feature","geometry":{"type":"Point","coordinates":[-82.77875519,34.63749695]},"properties":{"id":"wigle/08:3A:88:35:5A:DA","kind":"alpr","brand":"Flock Safety","rawBrand":"WiGLE RF signature","name":"Possible Flock Safety camera","operator":null,"directions":[],"omni":true,"zone":null,"purpose":"Unconfirmed — WiFi signature matches a Flock Safety camera. Not verified by eye.","imageUrl":null,"fovHalfAngle":180,"unconfirmed":true,"evidence":"WiGLE: SSID \"Flock\", 08:3A:88:35:5A:DA, first seen 2026-06-23"}},{"type":"Feature","geometry":{"type":"Point","coordinates":[-82.30944061,34.81975174]},"properties":{"id":"wigle/08:3A:88:43:9C:32","kind":"alpr","brand":"Flock Safety","rawBrand":"WiGLE RF signature","name":"Possible Flock Safety camera","operator":null,"directions":[],"omni":true,"zone":null,"purpose":"Unconfirmed — WiFi signature matches a Flock Safety camera. Not verified by eye.","imageUrl":null,"fovHalfAngle":180,"unconfirmed":true,"evidence":"WiGLE: SSID \"Flock\", 08:3A:88:43:9C:32, first seen 2026-07-21"}},{"type":"Feature","geometry":{"type":"Point","coordinates":[-82.65885162,34.54956055]},"properties":{"id":"wigle/08:3A:88:71:5B:0E","kind":"alpr","brand":"Flock Safety","rawBrand":"WiGLE RF signature","name":"Possible Flock Safety camera","operator":null,"directions":[],"omni":true,"zone":null,"purpose":"Unconfirmed — WiFi signature matches a Flock Safety camera. Not verified by eye.","imageUrl":null,"fovHalfAngle":180,"unconfirmed":true,"evidence":"WiGLE: SSID \"Flock\", 08:3A:88:71:5B:0E, first seen 2026-08-31"}},{"type":"Feature","geometry":{"type":"Point","coordinates":[-82.22263336,33.54469681]},"properties":{"id":"wigle/08:3A:88:8A:E7:7E","kind":"alpr","brand":"Flock Safety","rawBrand":"WiGLE RF signature","name":"Possible Flock Safety camera","operator":null,"directions":[],"omni":true,"zone":null,"purpose":"Unconfirmed — WiFi signature matches a Flock Safety camera. Not verified by eye.","imageUrl":null,"fovHalfAngle":180,"unconfirmed":true,"evidence":"WiGLE: SSID \"Flock\", 08:3A:88:8A:E7:7E, first seen 2026-07-08"}},{"type":"Feature","geometry":{"type":"Point","coordinates":[-82.17182922,33.51432037]},"properties":{"id":"wigle/08:3A:88:8A:EF:A6","kind":"alpr","brand":"Flock Safety","rawBrand":"WiGLE RF signature","name":"Possible Flock Safety camera","operator":null,"directions":[],"omni":true,"zone":null,"purpose":"Unconfirmed — WiFi signature matches a Flock Safety camera. Not verified by eye.","imageUrl":null,"fovHalfAngle":180,"unconfirmed":true,"evidence":"WiGLE: SSID \"Flock\", 08:3A:88:8A:EF:A6, first seen 2026-07-07"}},{"type":"Feature","geometry":{"type":"Point","coordinates":[-81.05880737,34.94047928]},"properties":{"id":"wigle/08:3A:88:E3:70:2B","kind":"alpr","brand":"Flock Safety","rawBrand":"WiGLE RF signature","name":"Possible Flock Safety camera","operator":null,"directions":[],"omni":true,"zone":null,"purpose":"Unconfirmed — WiFi signature matches a Flock Safety camera. Not verified by eye.","imageUrl":null,"fovHalfAngle":180,"unconfirmed":true,"evidence":"WiGLE: SSID \"Flock\", 08:3A:88:E3:70:2B, first seen 2026-09-11"}},{"type":"Feature","geometry":{"type":"Point","coordinates":[-81.03966522,34.93403625]},"properties":{"id":"wigle/08:3A:88:F4:14:26","kind":"alpr","brand":"Flock Safety","rawBrand":"WiGLE RF signature","name":"Possible Flock Safety camera","operator":null,"directions":[],"omni":true,"zone":null,"purpose":"Unconfirmed — WiFi signature matches a Flock Safety camera. Not verified by eye.","imageUrl":null,"fovHalfAngle":180,"unconfirmed":true,"evidence":"WiGLE: SSID \"Flock\", 08:3A:88:F4:14:26, first seen 2026-09-11"}},{"type":"Feature","geometry":{"type":"Point","coordinates":[-81.14404297,34.07614517]},"properties":{"id":"wigle/10:BD:A3:F4:2B:31","kind":"alpr","brand":"Flock Safety","rawBrand":"WiGLE RF signature","name":"Possible Flock Safety camera","operator":null,"directions":[],"omni":true,"zone":null,"purpose":"Unconfirmed — WiFi signature matches a Flock Safety camera. Not verified by eye.","imageUrl":null,"fovHalfAngle":180,"unconfirmed":true,"evidence":"WiGLE: SSID \"Flock\", 10:BD:A3:F4:2B:31, first seen 2026-07-17"}},{"type":"Feature","geometry":{"type":"Point","coordinates":[-81.08246613,34.90407944]},"properties":{"id":"wigle/14:21:03:C3:DA:C4","kind":"alpr","brand":"Flock Safety","rawBrand":"WiGLE RF signature","name":"Possible Flock Safety camera","operator":null,"directions":[],"omni":true,"zone":null,"purpose":"Unconfirmed — WiFi signature matches a Flock Safety camera. Not verified by eye.","imageUrl":null,"fovHalfAngle":180,"unconfirmed":true,"evidence":"WiGLE: SSID \"Flock\", 14:21:03:C3:DA:C4, first seen 2026-09-10"}},{"type":"Feature","geometry":{"type":"Point","coordinates":[-81.08419037,34.90352631]},"properties":{"id":"wigle/14:21:03:C3:DA:C5","kind":"alpr","brand":"Flock Safety","rawBrand":"WiGLE RF signature","name":"Possible Flock Safety camera","operator":null,"directions":[],"omni":true,"zone":null,"purpose":"Unconfirmed — WiFi signature matches a Flock Safety camera. Not verified by eye.","imageUrl":null,"fovHalfAngle":180,"unconfirmed":true,"evidence":"WiGLE: SSID \"Flock\", 14:21:03:C3:DA:C5, first seen 2026-09-10"}},{"type":"Feature","geometry":{"type":"Point","coordinates":[-82.67273712,34.54843903]},"properties":{"id":"wigle/14:5A:FC:2E:D6:ED","kind":"alpr","brand":"Flock Safety","rawBrand":"WiGLE RF signature","name":"Possible Flock Safety camera","operator":null,"directions":[],"omni":true,"zone":null,"purpose":"Unconfirmed — WiFi signature matches a Flock Safety camera. Not verified by eye.","imageUrl":null,"fovHalfAngle":180,"unconfirmed":true,"evidence":"WiGLE: SSID \"Flock\", 14:5A:FC:2E:D6:ED, first seen 2026-08-24"}},{"type":"Feature","geometry":{"type":"Point","coordinates":[-81.93757629,35.05594635]},"properties":{"id":"wigle/1C:DB:D4:A6:4A:1C","kind":"alpr","brand":"Flock Safety","rawBrand":"WiGLE RF signature","name":"Possible Flock Safety camera","operator":null,"directions":[],"omni":true,"zone":null,"purpose":"Unconfirmed — WiFi signature matches a Flock Safety camera. Not verified by eye.","imageUrl":null,"fovHalfAngle":180,"unconfirmed":true,"evidence":"WiGLE: SSID \"Flock\", 1C:DB:D4:A6:4A:1C, first seen 2026-06-21"}},{"type":"Feature","geometry":{"type":"Point","coordinates":[-80.91532135,35.18199921]},"properties":{"id":"wigle/24:B2:B9:1D:C1:95","kind":"alpr","brand":"Flock Safety","rawBrand":"WiGLE RF signature","name":"Possible Flock Safety camera","operator":null,"directions":[],"omni":true,"zone":null,"purpose":"Unconfirmed — WiFi signature matches a Flock Safety camera. Not verified by eye.","imageUrl":null,"fovHalfAngle":180,"unconfirmed":true,"evidence":"WiGLE: SSID \"Flock\", 24:B2:B9:1D:C1:95, first seen 2026-09-06"}},{"type":"Feature","geometry":{"type":"Point","coordinates":[-81.23171997,33.9785881]},"properties":{"id":"wigle/24:B2:B9:A5:58:37","kind":"alpr","brand":"Flock Safety","rawBrand":"WiGLE RF signature","name":"Possible Flock Safety camera","operator":null,"directions":[],"omni":true,"zone":null,"purpose":"Unconfirmed — WiFi signature matches a Flock Safety camera. Not verified by eye.","imageUrl":null,"fovHalfAngle":180,"unconfirmed":true,"evidence":"WiGLE: SSID \"Flock\", 24:B2:B9:A5:58:37, first seen 2026-08-29"}},{"type":"Feature","geometry":{"type":"Point","coordinates":[-81.23202515,33.97875977]},"properties":{"id":"wigle/24:B2:B9:B5:49:61","kind":"alpr","brand":"Flock Safety","rawBrand":"WiGLE RF signature","name":"Possible Flock Safety camera","operator":null,"directions":[],"omni":true,"zone":null,"purpose":"Unconfirmed — WiFi signature matches a Flock Safety camera. Not verified by eye.","imageUrl":null,"fovHalfAngle":180,"unconfirmed":true,"evidence":"WiGLE: SSID \"Flock\", 24:B2:B9:B5:49:61, first seen 2026-08-29"}},{"type":"Feature","geometry":{"type":"Point","coordinates":[-81.16028595,33.99377441]},"properties":{"id":"wigle/38:44:BE:B7:24:1C","kind":"alpr","brand":"Flock Safety","rawBrand":"WiGLE RF signature","name":"Possible Flock Safety camera","operator":null,"directions":[],"omni":true,"zone":null,"purpose":"Unconfirmed — WiFi signature matches a Flock Safety camera. Not verified by eye.","imageUrl":null,"fovHalfAngle":180,"unconfirmed":true,"evidence":"WiGLE: SSID \"Flock\", 38:44:BE:B7:24:1C, first seen 2026-09-10"}},{"type":"Feature","geometry":{"type":"Point","coordinates":[-82.25833893,34.82353592]},"properties":{"id":"wigle/3C:91:80:79:87:29","kind":"alpr","brand":"Flock Safety","rawBrand":"WiGLE RF signature","name":"Possible Flock Safety camera","operator":null,"directions":[],"omni":true,"zone":null,"purpose":"Unconfirmed — WiFi signature matches a Flock Safety camera. Not verified by eye.","imageUrl":null,"fovHalfAngle":180,"unconfirmed":true,"evidence":"WiGLE: SSID \"Flock\", 3C:91:80:79:87:29, first seen 2026-09-07"}},{"type":"Feature","geometry":{"type":"Point","coordinates":[-81.92972565,35.0672226]},"properties":{"id":"wigle/3C:DC:75:86:19:21","kind":"alpr","brand":"Flock Safety","rawBrand":"WiGLE RF signature","name":"Possible Flock Safety camera","operator":null,"directions":[],"omni":true,"zone":null,"purpose":"Unconfirmed — WiFi signature matches a Flock Safety camera. Not verified by eye.","imageUrl":null,"fovHalfAngle":180,"unconfirmed":true,"evidence":"WiGLE: SSID \"Flock\", 3C:DC:75:86:19:21, first seen 2026-06-02"}},{"type":"Feature","geometry":{"type":"Point","coordinates":[-81.14144135,34.07419968]},"properties":{"id":"wigle/3C:DC:75:86:BC:A5","kind":"alpr","brand":"Flock Safety","rawBrand":"WiGLE RF signature","name":"Possible Flock Safety camera","operator":null,"directions":[],"omni":true,"zone":null,"purpose":"Unconfirmed — WiFi signature matches a Flock Safety camera. Not verified by eye.","imageUrl":null,"fovHalfAngle":180,"unconfirmed":true,"evidence":"WiGLE: SSID \"Flock\", 3C:DC:75:86:BC:A5, first seen 2026-07-07"}},{"type":"Feature","geometry":{"type":"Point","coordinates":[-79.53794861,33.87636185]},"properties":{"id":"wigle/3C:DC:75:86:BF:01","kind":"alpr","brand":"Flock Safety","rawBrand":"WiGLE RF signature","name":"Possible Flock Safety camera","operator":null,"directions":[],"omni":true,"zone":null,"purpose":"Unconfirmed — WiFi signature matches a Flock Safety camera. Not verified by eye.","imageUrl":null,"fovHalfAngle":180,"unconfirmed":true,"evidence":"WiGLE: SSID \"Flock\", 3C:DC:75:86:BF:01, first seen 2026-08-15"}},{"type":"Feature","geometry":{"type":"Point","coordinates":[-81.95897675,35.06571198]},"properties":{"id":"wigle/3C:DC:75:86:BF:2D","kind":"alpr","brand":"Flock Safety","rawBrand":"WiGLE RF signature","name":"Possible Flock Safety camera","operator":null,"directions":[],"omni":true,"zone":null,"purpose":"Unconfirmed — WiFi signature matches a Flock Safety camera. Not verified by eye.","imageUrl":null,"fovHalfAngle":180,"unconfirmed":true,"evidence":"WiGLE: SSID \"Flock\", 3C:DC:75:86:BF:2D, first seen 2026-05-05"}},{"type":"Feature","geometry":{"type":"Point","coordinates":[-81.98212433,35.03626633]},"properties":{"id":"wigle/3C:DC:75:87:7F:21","kind":"alpr","brand":"Flock Safety","rawBrand":"WiGLE RF signature","name":"Possible Flock Safety camera","operator":null,"directions":[],"omni":true,"zone":null,"purpose":"Unconfirmed — WiFi signature matches a Flock Safety camera. Not verified by eye.","imageUrl":null,"fovHalfAngle":180,"unconfirmed":true,"evidence":"WiGLE: SSID \"Flock\", 3C:DC:75:87:7F:21, first seen 2026-06-07"}},{"type":"Feature","geometry":{"type":"Point","coordinates":[-81.99874115,35.06396484]},"properties":{"id":"wigle/3C:DC:75:87:80:44","kind":"alpr","brand":"Flock Safety","rawBrand":"WiGLE RF signature","name":"Possible Flock Safety camera","operator":null,"directions":[],"omni":true,"zone":null,"purpose":"Unconfirmed — WiFi signature matches a Flock Safety camera. Not verified by eye.","imageUrl":null,"fovHalfAngle":180,"unconfirmed":true,"evidence":"WiGLE: SSID \"Flock\", 3C:DC:75:87:80:44, first seen 2026-06-07"}},{"type":"Feature","geometry":{"type":"Point","coordinates":[-81.9979248,35.03634262]},"properties":{"id":"wigle/3C:DC:75:87:80:45","kind":"alpr","brand":"Flock Safety","rawBrand":"WiGLE RF signature","name":"Possible Flock Safety camera","operator":null,"directions":[],"omni":true,"zone":null,"purpose":"Unconfirmed — WiFi signature matches a Flock Safety camera. Not verified by eye.","imageUrl":null,"fovHalfAngle":180,"unconfirmed":true,"evidence":"WiGLE: SSID \"Flock\", 3C:DC:75:87:80:45, first seen 2026-06-06"}},{"type":"Feature","geometry":{"type":"Point","coordinates":[-82.12994385,33.53551483]},"properties":{"id":"wigle/3C:DC:75:87:80:90","kind":"alpr","brand":"Flock Safety","rawBrand":"WiGLE RF signature","name":"Possible Flock Safety camera","operator":null,"directions":[],"omni":true,"zone":null,"purpose":"Unconfirmed — WiFi signature matches a Flock Safety camera. Not verified by eye.","imageUrl":null,"fovHalfAngle":180,"unconfirmed":true,"evidence":"WiGLE: SSID \"Flock\", 3C:DC:75:87:80:90, first seen 2026-06-29"}},{"type":"Feature","geometry":{"type":"Point","coordinates":[-80.74002075,35.13759613]},"properties":{"id":"wigle/40:B8:9A:EF:AC:59","kind":"alpr","brand":"Flock Safety","rawBrand":"WiGLE RF signature","name":"Possible Flock Safety camera","operator":null,"directions":[],"omni":true,"zone":null,"purpose":"Unconfirmed — WiFi signature matches a Flock Safety camera. Not verified by eye.","imageUrl":null,"fovHalfAngle":180,"unconfirmed":true,"evidence":"WiGLE: SSID \"Flock\", 40:B8:9A:EF:AC:59, first seen 2018-06-30"}},{"type":"Feature","geometry":{"type":"Point","coordinates":[-81.02658081,34.97597885]},"properties":{"id":"wigle/70:08:94:1C:DB:85","kind":"alpr","brand":"Flock Safety","rawBrand":"WiGLE RF signature","name":"Possible Flock Safety camera","operator":null,"directions":[],"omni":true,"zone":null,"purpose":"Unconfirmed — WiFi signature matches a Flock Safety camera. Not verified by eye.","imageUrl":null,"fovHalfAngle":180,"unconfirmed":true,"evidence":"WiGLE: SSID \"Flock\", 70:08:94:1C:DB:85, first seen 2026-09-11"}},{"type":"Feature","geometry":{"type":"Point","coordinates":[-80.94368744,35.22017288]},"properties":{"id":"wigle/70:08:94:93:7A:27","kind":"alpr","brand":"Flock Safety","rawBrand":"WiGLE RF signature","name":"Possible Flock Safety camera","operator":null,"directions":[],"omni":true,"zone":null,"purpose":"Unconfirmed — WiFi signature matches a Flock Safety camera. Not verified by eye.","imageUrl":null,"fovHalfAngle":180,"unconfirmed":true,"evidence":"WiGLE: SSID \"Flock\", 70:08:94:93:7A:27, first seen 2026-09-06"}},{"type":"Feature","geometry":{"type":"Point","coordinates":[-81.23696136,33.98185349]},"properties":{"id":"wigle/70:08:94:B1:DC:53","kind":"alpr","brand":"Flock Safety","rawBrand":"WiGLE RF signature","name":"Possible Flock Safety camera","operator":null,"directions":[],"omni":true,"zone":null,"purpose":"Unconfirmed — WiFi signature matches a Flock Safety camera. Not verified by eye.","imageUrl":null,"fovHalfAngle":180,"unconfirmed":true,"evidence":"WiGLE: SSID \"Flock\", 70:08:94:B1:DC:53, first seen 2026-08-28"}},{"type":"Feature","geometry":{"type":"Point","coordinates":[-82.61925507,34.59044647]},"properties":{"id":"wigle/70:C9:4E:0F:63:D0","kind":"alpr","brand":"Flock Safety","rawBrand":"WiGLE RF signature","name":"Possible Flock Safety camera","operator":null,"directions":[],"omni":true,"zone":null,"purpose":"Unconfirmed — WiFi signature matches a Flock Safety camera. Not verified by eye.","imageUrl":null,"fovHalfAngle":180,"unconfirmed":true,"evidence":"WiGLE: SSID \"Flock\", 70:C9:4E:0F:63:D0, first seen 2026-09-10"}},{"type":"Feature","geometry":{"type":"Point","coordinates":[-82.35206604,34.82262421]},"properties":{"id":"wigle/70:C9:4E:47:DC:42","kind":"alpr","brand":"Flock Safety","rawBrand":"WiGLE RF signature","name":"Possible Flock Safety camera","operator":null,"directions":[],"omni":true,"zone":null,"purpose":"Unconfirmed — WiFi signature matches a Flock Safety camera. Not verified by eye.","imageUrl":null,"fovHalfAngle":180,"unconfirmed":true,"evidence":"WiGLE: SSID \"Flock\", 70:C9:4E:47:DC:42, first seen 2026-07-20"}},{"type":"Feature","geometry":{"type":"Point","coordinates":[-82.35484314,34.76449203]},"properties":{"id":"wigle/74:4C:A1:27:E3:3B","kind":"alpr","brand":"Flock Safety","rawBrand":"WiGLE RF signature","name":"Possible Flock Safety camera","operator":null,"directions":[],"omni":true,"zone":null,"purpose":"Unconfirmed — WiFi signature matches a Flock Safety camera. Not verified by eye.","imageUrl":null,"fovHalfAngle":180,"unconfirmed":true,"evidence":"WiGLE: SSID \"Flock\", 74:4C:A1:27:E3:3B, first seen 2026-09-01"}},{"type":"Feature","geometry":{"type":"Point","coordinates":[-81.06425476,33.25653458]},"properties":{"id":"wigle/78:42:1C:90:2D:99","kind":"alpr","brand":"Flock Safety","rawBrand":"WiGLE RF signature","name":"Possible Flock Safety camera","operator":null,"directions":[],"omni":true,"zone":null,"purpose":"Unconfirmed — WiFi signature matches a Flock Safety camera. Not verified by eye.","imageUrl":null,"fovHalfAngle":180,"unconfirmed":true,"evidence":"WiGLE: SSID \"Flock\", 78:42:1C:90:2D:99, first seen 2026-05-16"}},{"type":"Feature","geometry":{"type":"Point","coordinates":[-82.47075653,34.76634979]},"properties":{"id":"wigle/78:EE:4C:10:43:29","kind":"alpr","brand":"Flock Safety","rawBrand":"WiGLE RF signature","name":"Possible Flock Safety camera","operator":null,"directions":[],"omni":true,"zone":null,"purpose":"Unconfirmed — WiFi signature matches a Flock Safety camera. Not verified by eye.","imageUrl":null,"fovHalfAngle":180,"unconfirmed":true,"evidence":"WiGLE: SSID \"Flock\", 78:EE:4C:10:43:29, first seen 2026-09-04"}},{"type":"Feature","geometry":{"type":"Point","coordinates":[-82.30491638,34.79393387]},"properties":{"id":"wigle/7E:FD:D2:A5:CA:46","kind":"alpr","brand":"Flock Safety","rawBrand":"WiGLE RF signature","name":"Possible Flock Safety camera","operator":null,"directions":[],"omni":true,"zone":null,"purpose":"Unconfirmed — WiFi signature matches a Flock Safety camera. Not verified by eye.","imageUrl":null,"fovHalfAngle":180,"unconfirmed":true,"evidence":"WiGLE: SSID \"Flock\", 7E:FD:D2:A5:CA:46, first seen 2026-06-01"}},{"type":"Feature","geometry":{"type":"Point","coordinates":[-79.11826324,35.02923965]},"properties":{"id":"wigle/88:DE:7C:2F:8F:3C","kind":"alpr","brand":"Flock Safety","rawBrand":"WiGLE RF signature","name":"Possible Flock Safety camera","operator":null,"directions":[],"omni":true,"zone":null,"purpose":"Unconfirmed — WiFi signature matches a Flock Safety camera. Not verified by eye.","imageUrl":null,"fovHalfAngle":180,"unconfirmed":true,"evidence":"WiGLE: SSID \"Flock\", 88:DE:7C:2F:8F:3C, first seen 2024-11-10"}},{"type":"Feature","geometry":{"type":"Point","coordinates":[-78.95314026,35.0728569]},"properties":{"id":"wigle/94:08:53:4E:CB:AF","kind":"alpr","brand":"Flock Safety","rawBrand":"WiGLE RF signature","name":"Possible Flock Safety camera","operator":null,"directions":[],"omni":true,"zone":null,"purpose":"Unconfirmed — WiFi signature matches a Flock Safety camera. Not verified by eye.","imageUrl":null,"fovHalfAngle":180,"unconfirmed":true,"evidence":"WiGLE: SSID \"Flock\", 94:08:53:4E:CB:AF, first seen 2026-07-01"}},{"type":"Feature","geometry":{"type":"Point","coordinates":[-82.77881622,34.63783264]},"properties":{"id":"wigle/9C:2F:9D:59:4F:67","kind":"alpr","brand":"Flock Safety","rawBrand":"WiGLE RF signature","name":"Possible Flock Safety camera","operator":null,"directions":[],"omni":true,"zone":null,"purpose":"Unconfirmed — WiFi signature matches a Flock Safety camera. Not verified by eye.","imageUrl":null,"fovHalfAngle":180,"unconfirmed":true,"evidence":"WiGLE: SSID \"Flock\", 9C:2F:9D:59:4F:67, first seen 2026-06-23"}},{"type":"Feature","geometry":{"type":"Point","coordinates":[-82.51043701,34.77534866]},"properties":{"id":"wigle/9C:2F:9D:5C:C8:85","kind":"alpr","brand":"Flock Safety","rawBrand":"WiGLE RF signature","name":"Possible Flock Safety camera","operator":null,"directions":[],"omni":true,"zone":null,"purpose":"Unconfirmed — WiFi signature matches a Flock Safety camera. Not verified by eye.","imageUrl":null,"fovHalfAngle":180,"unconfirmed":true,"evidence":"WiGLE: SSID \"Flock\", 9C:2F:9D:5C:C8:85, first seen 2026-09-03"}},{"type":"Feature","geometry":{"type":"Point","coordinates":[-81.24008179,32.14724731]},"properties":{"id":"wigle/9C:2F:9D:5D:FE:DD","kind":"alpr","brand":"Flock Safety","rawBrand":"WiGLE RF signature","name":"Possible Flock Safety camera","operator":null,"directions":[],"omni":true,"zone":null,"purpose":"Unconfirmed — WiFi signature matches a Flock Safety camera. Not verified by eye.","imageUrl":null,"fovHalfAngle":180,"unconfirmed":true,"evidence":"WiGLE: SSID \"Flock\", 9C:2F:9D:5D:FE:DD, first seen 2026-03-13"}},{"type":"Feature","geometry":{"type":"Point","coordinates":[-78.98240662,33.64896393]},"properties":{"id":"wigle/9C:2F:9D:6F:45:B1","kind":"alpr","brand":"Flock Safety","rawBrand":"WiGLE RF signature","name":"Possible Flock Safety camera","operator":null,"directions":[],"omni":true,"zone":null,"purpose":"Unconfirmed — WiFi signature matches a Flock Safety camera. Not verified by eye.","imageUrl":null,"fovHalfAngle":180,"unconfirmed":true,"evidence":"WiGLE: SSID \"Flock\", 9C:2F:9D:6F:45:B1, first seen 2026-07-01"}},{"type":"Feature","geometry":{"type":"Point","coordinates":[-82.38551331,34.85612106]},"properties":{"id":"wigle/9C:2F:9D:73:65:DD","kind":"alpr","brand":"Flock Safety","rawBrand":"WiGLE RF signature","name":"Possible Flock Safety camera","operator":null,"directions":[],"omni":true,"zone":null,"purpose":"Unconfirmed — WiFi signature matches a Flock Safety camera. Not verified by eye.","imageUrl":null,"fovHalfAngle":180,"unconfirmed":true,"evidence":"WiGLE: SSID \"Flock\", 9C:2F:9D:73:65:DD, first seen 2026-06-30"}},{"type":"Feature","geometry":{"type":"Point","coordinates":[-81.24015045,32.1423111]},"properties":{"id":"wigle/9C:2F:9D:89:DF:F1","kind":"alpr","brand":"Flock Safety","rawBrand":"WiGLE RF signature","name":"Possible Flock Safety camera","operator":null,"directions":[],"omni":true,"zone":null,"purpose":"Unconfirmed — WiFi signature matches a Flock Safety camera. Not verified by eye.","imageUrl":null,"fovHalfAngle":180,"unconfirmed":true,"evidence":"WiGLE: SSID \"Flock\", 9C:2F:9D:89:DF:F1, first seen 2026-03-13"}},{"type":"Feature","geometry":{"type":"Point","coordinates":[-82.14313507,33.49734879]},"properties":{"id":"wigle/A4:56:CC:99:4C:E9","kind":"alpr","brand":"Flock Safety","rawBrand":"WiGLE RF signature","name":"Possible Flock Safety camera","operator":null,"directions":[],"omni":true,"zone":null,"purpose":"Unconfirmed — WiFi signature matches a Flock Safety camera. Not verified by eye.","imageUrl":null,"fovHalfAngle":180,"unconfirmed":true,"evidence":"WiGLE: SSID \"Flock\", A4:56:CC:99:4C:E9, first seen 2025-05-26"}},{"type":"Feature","geometry":{"type":"Point","coordinates":[-81.04502869,34.93763351]},"properties":{"id":"wigle/B8:1E:A4:5F:3C:7F","kind":"alpr","brand":"Flock Safety","rawBrand":"WiGLE RF signature","name":"Possible Flock Safety camera","operator":null,"directions":[],"omni":true,"zone":null,"purpose":"Unconfirmed — WiFi signature matches a Flock Safety camera. Not verified by eye.","imageUrl":null,"fovHalfAngle":180,"unconfirmed":true,"evidence":"WiGLE: SSID \"Flock\", B8:1E:A4:5F:3C:7F, first seen 2026-09-11"}},{"type":"Feature","geometry":{"type":"Point","coordinates":[-81.18686676,33.99056625]},"properties":{"id":"wigle/C0:35:32:A7:46:23","kind":"alpr","brand":"Flock Safety","rawBrand":"WiGLE RF signature","name":"Possible Flock Safety camera","operator":null,"directions":[],"omni":true,"zone":null,"purpose":"Unconfirmed — WiFi signature matches a Flock Safety camera. Not verified by eye.","imageUrl":null,"fovHalfAngle":180,"unconfirmed":true,"evidence":"WiGLE: SSID \"Flock\", C0:35:32:A7:46:23, first seen 2026-08-29"}},{"type":"Feature","geometry":{"type":"Point","coordinates":[-82.33044434,34.88587189]},"properties":{"id":"wigle/C4:41:1E:6F:8F:EE","kind":"alpr","brand":"Flock Safety","rawBrand":"WiGLE RF signature","name":"Possible Flock Safety camera","operator":null,"directions":[],"omni":true,"zone":null,"purpose":"Unconfirmed — WiFi signature matches a Flock Safety camera. Not verified by eye.","imageUrl":null,"fovHalfAngle":180,"unconfirmed":true,"evidence":"WiGLE: SSID \"Flock\", C4:41:1E:6F:8F:EE, first seen 2024-03-10"}},{"type":"Feature","geometry":{"type":"Point","coordinates":[-78.69463348,33.8379631]},"properties":{"id":"wigle/D0:39:57:54:F3:97","kind":"alpr","brand":"Flock Safety","rawBrand":"WiGLE RF signature","name":"Possible Flock Safety camera","operator":null,"directions":[],"omni":true,"zone":null,"purpose":"Unconfirmed — WiFi signature matches a Flock Safety camera. Not verified by eye.","imageUrl":null,"fovHalfAngle":180,"unconfirmed":true,"evidence":"WiGLE: SSID \"Flock\", D0:39:57:54:F3:97, first seen 2026-07-05"}},{"type":"Feature","geometry":{"type":"Point","coordinates":[-81.96964264,35.03394318]},"properties":{"id":"wigle/D0:39:57:5A:E9:05","kind":"alpr","brand":"Flock Safety","rawBrand":"WiGLE RF signature","name":"Possible Flock Safety camera","operator":null,"directions":[],"omni":true,"zone":null,"purpose":"Unconfirmed — WiFi signature matches a Flock Safety camera. Not verified by eye.","imageUrl":null,"fovHalfAngle":180,"unconfirmed":true,"evidence":"WiGLE: SSID \"Flock\", D0:39:57:5A:E9:05, first seen 2026-05-30"}},{"type":"Feature","geometry":{"type":"Point","coordinates":[-82.02689362,33.52175903]},"properties":{"id":"wigle/D0:39:57:8D:5C:65","kind":"alpr","brand":"Flock Safety","rawBrand":"WiGLE RF signature","name":"Possible Flock Safety camera","operator":null,"directions":[],"omni":true,"zone":null,"purpose":"Unconfirmed — WiFi signature matches a Flock Safety camera. Not verified by eye.","imageUrl":null,"fovHalfAngle":180,"unconfirmed":true,"evidence":"WiGLE: SSID \"Flock\", D0:39:57:8D:5C:65, first seen 2026-07-16"}},{"type":"Feature","geometry":{"type":"Point","coordinates":[-82.63568878,34.53052902]},"properties":{"id":"wigle/D0:39:57:9D:DE:5F","kind":"alpr","brand":"Flock Safety","rawBrand":"WiGLE RF signature","name":"Possible Flock Safety camera","operator":null,"directions":[],"omni":true,"zone":null,"purpose":"Unconfirmed — WiFi signature matches a Flock Safety camera. Not verified by eye.","imageUrl":null,"fovHalfAngle":180,"unconfirmed":true,"evidence":"WiGLE: SSID \"Flock\", D0:39:57:9D:DE:5F, first seen 2025-07-28"}},{"type":"Feature","geometry":{"type":"Point","coordinates":[-82.31338501,34.79809189]},"properties":{"id":"wigle/D0:39:57:B2:4C:A3","kind":"alpr","brand":"Flock Safety","rawBrand":"WiGLE RF signature","name":"Possible Flock Safety camera","operator":null,"directions":[],"omni":true,"zone":null,"purpose":"Unconfirmed — WiFi signature matches a Flock Safety camera. Not verified by eye.","imageUrl":null,"fovHalfAngle":180,"unconfirmed":true,"evidence":"WiGLE: SSID \"Flock\", D0:39:57:B2:4C:A3, first seen 2026-07-20"}},{"type":"Feature","geometry":{"type":"Point","coordinates":[-82.44777679,34.78519821]},"properties":{"id":"wigle/D0:39:57:CB:C4:91","kind":"alpr","brand":"Flock Safety","rawBrand":"WiGLE RF signature","name":"Possible Flock Safety camera","operator":null,"directions":[],"omni":true,"zone":null,"purpose":"Unconfirmed — WiFi signature matches a Flock Safety camera. Not verified by eye.","imageUrl":null,"fovHalfAngle":180,"unconfirmed":true,"evidence":"WiGLE: SSID \"Flock\", D0:39:57:CB:C4:91, first seen 2026-09-03"}},{"type":"Feature","geometry":{"type":"Point","coordinates":[-81.21672058,34.98636627]},"properties":{"id":"wigle/D0:CF:13:FE:A3:04","kind":"alpr","brand":"Flock Safety","rawBrand":"WiGLE RF signature","name":"Possible Flock Safety camera","operator":null,"directions":[],"omni":true,"zone":null,"purpose":"Unconfirmed — WiFi signature matches a Flock Safety camera. Not verified by eye.","imageUrl":null,"fovHalfAngle":180,"unconfirmed":true,"evidence":"WiGLE: SSID \"Flock\", D0:CF:13:FE:A3:04, first seen 2026-08-27"}},{"type":"Feature","geometry":{"type":"Point","coordinates":[-81.03160858,34.92866898]},"properties":{"id":"wigle/D8:F3:BC:BB:E9:1F","kind":"alpr","brand":"Flock Safety","rawBrand":"WiGLE RF signature","name":"Possible Flock Safety camera","operator":null,"directions":[],"omni":true,"zone":null,"purpose":"Unconfirmed — WiFi signature matches a Flock Safety camera. Not verified by eye.","imageUrl":null,"fovHalfAngle":180,"unconfirmed":true,"evidence":"WiGLE: SSID \"Flock\", D8:F3:BC:BB:E9:1F, first seen 2026-09-11"}},{"type":"Feature","geometry":{"type":"Point","coordinates":[-81.98049164,35.0661087]},"properties":{"id":"wigle/D8:F3:BC:FB:F0:29","kind":"alpr","brand":"Flock Safety","rawBrand":"WiGLE RF signature","name":"Possible Flock Safety camera","operator":null,"directions":[],"omni":true,"zone":null,"purpose":"Unconfirmed — WiFi signature matches a Flock Safety camera. Not verified by eye.","imageUrl":null,"fovHalfAngle":180,"unconfirmed":true,"evidence":"WiGLE: SSID \"Flock\", D8:F3:BC:FB:F0:29, first seen 2026-05-14"}},{"type":"Feature","geometry":{"type":"Point","coordinates":[-82.63784027,34.51194]},"properties":{"id":"wigle/D8:F3:BC:FE:F1:47","kind":"alpr","brand":"Flock Safety","rawBrand":"WiGLE RF signature","name":"Possible Flock Safety camera","operator":null,"directions":[],"omni":true,"zone":null,"purpose":"Unconfirmed — WiFi signature matches a Flock Safety camera. Not verified by eye.","imageUrl":null,"fovHalfAngle":180,"unconfirmed":true,"evidence":"WiGLE: SSID \"Flock\", D8:F3:BC:FE:F1:47, first seen 2026-09-03"}},{"type":"Feature","geometry":{"type":"Point","coordinates":[-79.76091003,34.19417953]},"properties":{"id":"wigle/E0:0A:F6:57:89:0D","kind":"alpr","brand":"Flock Safety","rawBrand":"WiGLE RF signature","name":"Possible Flock Safety camera","operator":null,"directions":[],"omni":true,"zone":null,"purpose":"Unconfirmed — WiFi signature matches a Flock Safety camera. Not verified by eye.","imageUrl":null,"fovHalfAngle":180,"unconfirmed":true,"evidence":"WiGLE: SSID \"Flock\", E0:0A:F6:57:89:0D, first seen 2026-06-06"}},{"type":"Feature","geometry":{"type":"Point","coordinates":[-81.99057007,34.93695831]},"properties":{"id":"wigle/E4:AA:EA:80:A3:B7","kind":"alpr","brand":"Flock Safety","rawBrand":"WiGLE RF signature","name":"Possible Flock Safety camera","operator":null,"directions":[],"omni":true,"zone":null,"purpose":"Unconfirmed — WiFi signature matches a Flock Safety camera. Not verified by eye.","imageUrl":null,"fovHalfAngle":180,"unconfirmed":true,"evidence":"WiGLE: SSID \"Flock\", E4:AA:EA:80:A3:B7, first seen 2026-06-06"}},{"type":"Feature","geometry":{"type":"Point","coordinates":[-83.39027405,35.11479187]},"properties":{"id":"wigle/E8:D0:FC:14:54:9C","kind":"alpr","brand":"Flock Safety","rawBrand":"WiGLE RF signature","name":"Possible Flock Safety camera","operator":null,"directions":[],"omni":true,"zone":null,"purpose":"Unconfirmed — WiFi signature matches a Flock Safety camera. Not verified by eye.","imageUrl":null,"fovHalfAngle":180,"unconfirmed":true,"evidence":"WiGLE: SSID \"Flock\", E8:D0:FC:14:54:9C, first seen 2026-08-31"}},{"type":"Feature","geometry":{"type":"Point","coordinates":[-81.96965027,35.03393936]},"properties":{"id":"wigle/E8:D0:FC:EE:4D:E9","kind":"alpr","brand":"Flock Safety","rawBrand":"WiGLE RF signature","name":"Possible Flock Safety camera","operator":null,"directions":[],"omni":true,"zone":null,"purpose":"Unconfirmed — WiFi signature matches a Flock Safety camera. Not verified by eye.","imageUrl":null,"fovHalfAngle":180,"unconfirmed":true,"evidence":"WiGLE: SSID \"Flock\", E8:D0:FC:EE:4D:E9, first seen 2026-06-23"}},{"type":"Feature","geometry":{"type":"Point","coordinates":[-82.09257507,33.50802612]},"properties":{"id":"wigle/F4:6A:DD:31:F3:8B","kind":"alpr","brand":"Flock Safety","rawBrand":"WiGLE RF signature","name":"Possible Flock Safety camera","operator":null,"directions":[],"omni":true,"zone":null,"purpose":"Unconfirmed — WiFi signature matches a Flock Safety camera. Not verified by eye.","imageUrl":null,"fovHalfAngle":180,"unconfirmed":true,"evidence":"WiGLE: SSID \"Flock\", F4:6A:DD:31:F3:8B, first seen 2026-07-04"}},{"type":"Feature","geometry":{"type":"Point","coordinates":[-81.97014618,35.03409576]},"properties":{"id":"wigle/F4:6A:DD:37:0F:97","kind":"alpr","brand":"Flock Safety","rawBrand":"WiGLE RF signature","name":"Possible Flock Safety camera","operator":null,"directions":[],"omni":true,"zone":null,"purpose":"Unconfirmed — WiFi signature matches a Flock Safety camera. Not verified by eye.","imageUrl":null,"fovHalfAngle":180,"unconfirmed":true,"evidence":"WiGLE: SSID \"Flock\", F4:6A:DD:37:0F:97, first seen 2026-05-09"}},{"type":"Feature","geometry":{"type":"Point","coordinates":[-81.96901703,35.03376007]},"properties":{"id":"wigle/F4:6A:DD:42:74:C5","kind":"alpr","brand":"Flock Safety","rawBrand":"WiGLE RF signature","name":"Possible Flock Safety camera","operator":null,"directions":[],"omni":true,"zone":null,"purpose":"Unconfirmed — WiFi signature matches a Flock Safety camera. Not verified by eye.","imageUrl":null,"fovHalfAngle":180,"unconfirmed":true,"evidence":"WiGLE: SSID \"Flock\", F4:6A:DD:42:74:C5, first seen 2026-05-09"}},{"type":"Feature","geometry":{"type":"Point","coordinates":[-81.03607178,34.75482941]},"properties":{"id":"wigle/F4:6A:DD:8B:D2:AB","kind":"alpr","brand":"Flock Safety","rawBrand":"WiGLE RF signature","name":"Possible Flock Safety camera","operator":null,"directions":[],"omni":true,"zone":null,"purpose":"Unconfirmed — WiFi signature matches a Flock Safety camera. Not verified by eye.","imageUrl":null,"fovHalfAngle":180,"unconfirmed":true,"evidence":"WiGLE: SSID \"Flock\", F4:6A:DD:8B:D2:AB, first seen 2026-09-03"}},{"type":"Feature","geometry":{"type":"Point","coordinates":[-78.91628265,35.09771347]},"properties":{"id":"wigle/F4:6A:DD:EA:C2:45","kind":"alpr","brand":"Flock Safety","rawBrand":"WiGLE RF signature","name":"Possible Flock Safety camera","operator":null,"directions":[],"omni":true,"zone":null,"purpose":"Unconfirmed — WiFi signature matches a Flock Safety camera. Not verified by eye.","imageUrl":null,"fovHalfAngle":180,"unconfirmed":true,"evidence":"WiGLE: SSID \"Flock\", F4:6A:DD:EA:C2:45, first seen 2026-08-01"}}]}